QIANFAN-1               
1 60379U 24140A   26017.91010730  .00000152  00000+0  21580-3 0  9999
2 60379  88.9778 295.5424 0018991 107.2197 253.1034 13.50987368 72232
QIANFAN-2               
1 60380U 24140B   26017.93897218  .00000140  00000+0  19845-3 0  9995
2 60380  88.9765 295.3737 0014576  81.5437 278.7365 13.50991211 72299
QIANFAN-3               
1 60381U 24140C   26017.94713224  .00000157  00000+0  22450-3 0  9995
2 60381  88.9757 295.5027 0015611  92.7398 267.5540 13.50991778 72206
QIANFAN-4               
1 60382U 24140D   26017.99648195  .00000141  00000+0  19916-3 0  9991
2 60382  88.9782 295.4044 0014802  83.7000 276.5836 13.50987481 72332
QIANFAN-5               
1 60383U 24140E   26017.89782564  .00000149  00000+0  21185-3 0  9999
2 60383  88.9757 295.5332 0016732 103.2480 257.0539 13.50989524 72187
QIANFAN-6               
1 60384U 24140F   26017.91839849  .00000141  00000+0  19992-3 0  9997
2 60384  88.9784 295.2870 0014883  89.1827 271.1029 13.50989691 72382
QIANFAN-7               
1 60385U 24140G   26017.91031020  .00000596  00000+0  23580-3 0  9995
2 60385  88.9794 289.4789 0013093 286.5198  73.4558 14.27710696 75558
QIANFAN-8               
1 60386U 24140H   26018.00074237  .00000130  00000+0  18225-3 0  9998
2 60386  88.9785 295.5166 0018317  91.3818 268.9432 13.50991015 72247
